COSMOS 2503             
1 40420U 15009A   26068.69626972  .00002817  00000+0  19590-3 0  9998
2 40420  97.8437 123.7175 0015321 225.7450 134.2520 15.06275973603958
STARLINK-3328           
1 50832U 22001AF  26068.58501413  .00000604  00000+0  56005-4 0  9991
2 50832  53.2182 179.6406 0001185  88.7271 271.3857 15.08836107230256
